[{"OBJECT_NAME":"TEIKYOSAT-4 (OORURI)","OBJECT_ID":"2021-102B","EPOCH":"2026-03-09T16:12:29.535840","MEAN_MOTION":15.09119208,"ECCENTRICITY":0.00103447,"INCLINATION":97.3797,"RA_OF_ASC_NODE":101.9931,"ARG_OF_PERICENTER":276.5421,"MEAN_ANOMALY":83.463,"EPHEMERIS_TYPE":0,"CLASSIFICATION_TYPE":"U","NORAD_CAT_ID":49396,"ELEMENT_SET_NO":999,"REV_AT_EPOCH":23771,"BSTAR":0.00015739844,"MEAN_MOTION_DOT":2.438e-5,"MEAN_MOTION_DDOT":0},{"OBJECT_NAME":"STARLINK-5018","OBJECT_ID":"2022-119AV","EPOCH":"2026-03-09T22:00:04.282272","MEAN_MOTION":15.08835009,"ECCENTRICITY":0.00013169,"INCLINATION":53.2174,"RA_OF_ASC_NODE":313.4778,"ARG_OF_PERICENTER":87.5613,"MEAN_ANOMALY":272.553,"EPHEMERIS_TYPE":0,"CLASSIFICATION_TYPE":"U","NORAD_CAT_ID":53929,"ELEMENT_SET_NO":999,"REV_AT_EPOCH":19185,"BSTAR":-6.9303324e-5,"MEAN_MOTION_DOT":-1.391e-5,"MEAN_MOTION_DDOT":0}]
